0 FENGYUN 1C DEB
1 30028U 99025ND  13281.66616630  .00000973  00000-0  23772-3 0  8584
2 30028 098.5180 317.8553 0210313 111.2683 017.0200 14.42361070354291
0 FENGYUN 1C DEB
1 30028U 99025ND  13283.04025478  .00001079  00000-0  26223-3 0  8595
2 30028 098.5178 319.2282 0210290 107.1583 311.9573 14.42368185354495
0 FENGYUN 1C DEB
1 30028U 99025ND  13284.08175748  .00001180  00000-0  28557-3 0  8603
2 30028 098.5174 320.2690 0210333 104.0380 319.9679 14.42369370354644
0 FENGYUN 1C DEB
1 30028U 99025ND  13286.09172872  .00001033  00000-0  25138-3 0  8611
2 30028 098.5170 322.2774 0210290 098.0299 316.7737 14.42374050354931
0 FENGYUN 1C DEB
1 30028U 99025ND  13287.63058323  .00001383  00000-0  33258-3 0  8627
2 30028 098.5165 323.8150 0210219 093.4233 027.3248 14.42378469355153
0 FENGYUN 1C DEB
1 30028U 99025ND  13289.07453435  .00001406  00000-0  33796-3 0  8634
2 30028 098.5161 325.2576 0210175 089.1023 325.1134 14.42384512355369
0 FENGYUN 1C DEB
1 30028U 99025ND  13291.01842524  .00001303  00000-0  31421-3 0  8642
2 30028 098.5159 327.1996 0210090 083.2857 338.9068 14.42389262355645
0 FENGYUN 1C DEB
1 30028U 99025ND  13292.05321271  .00001388  00000-0  33386-3 0  8654
2 30028 098.5157 328.2334 0210052 080.1913 312.1291 14.42391144355798
0 FENGYUN 1C DEB
1 30028U 99025ND  13293.66541142  .00001474  00000-0  35387-3 0  8663
2 30028 098.5158 329.8437 0209927 075.3617 043.6333 14.42395010356022
0 FENGYUN 1C DEB
1 30028U 99025ND  13295.11173016  .00001450  00000-0  34831-3 0  8674
2 30028 098.5157 331.2885 0209925 071.0340 353.8004 14.42398684356233
